[{"OBJECT_NAME":"TYVAK-0173","OBJECT_ID":"2021-059P","EPOCH":"2026-03-09T20:34:33.037248","MEAN_MOTION":14.81501003,"ECCENTRICITY":0.0009326,"INCLINATION":96.0076,"RA_OF_ASC_NODE":169.9257,"ARG_OF_PERICENTER":18.4576,"MEAN_ANOMALY":341.6978,"EPHEMERIS_TYPE":0,"CLASSIFICATION_TYPE":"U","NORAD_CAT_ID":48892,"ELEMENT_SET_NO":999,"REV_AT_EPOCH":25353,"BSTAR":0.00038359729,"MEAN_MOTION_DOT":2.977e-5,"MEAN_MOTION_DDOT":0},{"OBJECT_NAME":"SL-14 R\/B","OBJECT_ID":"1981-082B","EPOCH":"2026-03-09T21:09:42.816384","MEAN_MOTION":14.87140972,"ECCENTRICITY":0.00173041,"INCLINATION":82.4894,"RA_OF_ASC_NODE":200.4191,"ARG_OF_PERICENTER":158.4125,"MEAN_ANOMALY":201.7826,"EPHEMERIS_TYPE":0,"CLASSIFICATION_TYPE":"U","NORAD_CAT_ID":12786,"ELEMENT_SET_NO":999,"REV_AT_EPOCH":38689,"BSTAR":8.3406244e-5,"MEAN_MOTION_DOT":7.75e-6,"MEAN_MOTION_DDOT":0}]
